[{"OBJECT_NAME":"COSMOS 2597 (RODNIK-S 22)","OBJECT_ID":"2025-273A","EPOCH":"2026-03-09T21:46:58.251360","MEAN_MOTION":12.42896743,"ECCENTRICITY":0.00124298,"INCLINATION":82.4965,"RA_OF_ASC_NODE":232.2436,"ARG_OF_PERICENTER":77.3959,"MEAN_ANOMALY":282.851,"EPHEMERIS_TYPE":0,"CLASSIFICATION_TYPE":"U","NORAD_CAT_ID":66647,"ELEMENT_SET_NO":999,"REV_AT_EPOCH":1296,"BSTAR":0.0001853085,"MEAN_MOTION_DOT":3.6e-7,"MEAN_MOTION_DDOT":0},{"OBJECT_NAME":"SL-14 R\/B","OBJECT_ID":"1990-066B","EPOCH":"2026-03-09T16:14:41.461728","MEAN_MOTION":12.410828,"ECCENTRICITY":0.00233985,"INCLINATION":73.6005,"RA_OF_ASC_NODE":152.5764,"ARG_OF_PERICENTER":30.8741,"MEAN_ANOMALY":79.9531,"EPHEMERIS_TYPE":0,"CLASSIFICATION_TYPE":"U","NORAD_CAT_ID":20721,"ELEMENT_SET_NO":999,"REV_AT_EPOCH":61345,"BSTAR":8.7933236e-5,"MEAN_MOTION_DOT":-5.0e-8,"MEAN_MOTION_DDOT":0}]
